*******************************************************************************
JPL/HORIZONS                 191 Kolga (A878 SB)           2023-Sep-04 11:04:54
Rec #:     191 (+COV) Soln.date: 2023-Aug-22_13:05:36   # obs: 8967 (1991-2023)
 
IAU76/J2000 helio. ecliptic osc. elements (au, days, deg., period=Julian yrs):
 
  EPOCH=  2458034.5 ! 2017-Oct-08.00 (TDB)         Residual RMS= .051836
   EC= .09098636736528322  QR= 2.631226343918782   TP= 2457768.4238387747
   OM= 159.3048109572266   W=  226.8610099716633   IN= 11.50698912875032
   A= 2.894595030761358    MA= 53.25106792757309   ADIST= 3.157963717603934
   PER= 4.92481            N= .200134682           ANGMOM= .029145413
   DAN= 3.06107            DDN= 2.7025             L= 25.5850276
   B= -8.3700236           MOID= 1.64692998        TP= 2017-Jan-14.9238387747
 
Asteroid physical parameters (km, seconds, rotational period in hours):
   GM= n.a.                RAD= 47.268             ROTPER= 17.604
   H= 9.14                 G= .150                 B-V= .675
                           ALBEDO= .046            STYP= Cb

ASTEROID comments: 
1: soln ref.= JPL#129, OCC=0
2: source=ORB
*******************************************************************************


*******************************************************************************
Ephemeris / API_USER Mon Sep  4 11:04:55 2023 Pasadena, USA      / Horizons
*******************************************************************************
Target body name: 191 Kolga (A878 SB)             {source: JPL#129}
Center body name: Solar System Barycenter (0)     {source: DE441}
Center-site name: BODY CENTER
*******************************************************************************
Start time      : A.D. 2023-Aug-12 00:00:00.0000 TDB
Stop  time      : A.D. 2023-Aug-13 00:00:00.0000 TDB
Step-size       : 2880 minutes
*******************************************************************************
Center geodetic : 0.0, 0.0, 0.0                   {E-lon(deg),Lat(deg),Alt(km)}
Center cylindric: 0.0, 0.0, 0.0                   {E-lon(deg),Dxy(km),Dz(km)}
Center radii    : (undefined)
Small perturbers: Yes                             {source: SB441-N16}
Output units    : KM-S
Calendar mode   : Mixed Julian/Gregorian
Output type     : GEOMETRIC cartesian states
Output format   : 2 (position and velocity)
Reference frame : Ecliptic of J2000.0
*******************************************************************************
Initial IAU76/J2000 heliocentric ecliptic osculating elements (au, days, deg.):
  EPOCH=  2458034.5 ! 2017-Oct-08.00 (TDB)         Residual RMS= .051836       
   EC= .09098636736528322  QR= 2.631226343918782   TP= 2457768.4238387747      
   OM= 159.3048109572266   W=  226.8610099716633   IN= 11.50698912875032       
  Equivalent ICRF heliocentric cartesian coordinates (au, au/d):
   X= 6.115450957395718E-02  Y= 2.687056179253725E+00  Z= 5.989971461466508E-01
  VX=-1.053703513312384E-02 VY= 8.636781909035869E-04 VZ= 9.571954386725517E-04
Asteroid physical parameters (km, seconds, rotational period in hours):        
   GM= n.a.                RAD= 47.268             ROTPER= 17.604              
   H= 9.14                 G= .150                 B-V= .675                   
                           ALBEDO= .046            STYP= Cb                    
*******************************************************************************
JDTDB
   X     Y     Z
   VX    VY    VZ
*******************************************************************************
$$SOE
2460168.500000000 = A.D. 2023-Aug-12 00:00:00.0000 TDB 
 X =-4.118907955090724E+08 Y = 1.952115747356400E+08 Z =-7.483959041880071E+06
 VX=-8.119889943483674E+00 VY=-1.416842303263823E+01 VZ= 3.286015782354870E+00
$$EOE
*******************************************************************************
 
TIME

  Barycentric Dynamical Time ("TDB" or T_eph) output was requested. This
continuous coordinate time is equivalent to the relativistic proper time
of a clock at rest in a reference frame co-moving with the solar system
barycenter but outside the system's gravity well. It is the independent
variable in the solar system relativistic equations of motion.

  TDB runs at a uniform rate of one SI second per second and is independent
of irregularities in Earth's rotation.
 
CALENDAR SYSTEM

  Mixed calendar mode was active such that calendar dates after AD 1582-Oct-15
(if any) are in the modern Gregorian system. Dates prior to 1582-Oct-5 (if any)
are in the Julian calendar system, which is automatically extended for dates
prior to its adoption on 45-Jan-1 BC.  The Julian calendar is useful for
matching historical dates. The Gregorian calendar more accurately corresponds
to the Earth's orbital motion and seasons. A "Gregorian-only" calendar mode is
available if such physical events are the primary interest.

REFERENCE FRAME AND COORDINATES

  Ecliptic at the standard reference epoch

    Reference epoch: J2000.0
    X-Y plane: adopted Earth orbital plane at the reference epoch
               Note: IAU76 obliquity of 84381.448 arcseconds wrt ICRF X-Y plane
    X-axis   : ICRF
    Z-axis   : perpendicular to the X-Y plane in the directional (+ or -) sense
               of Earth's north pole at the reference epoch.

  Symbol meaning:

    JDTDB    Julian Day Number, Barycentric Dynamical Time
      X      X-component of position vector (km)
      Y      Y-component of position vector (km)
      Z      Z-component of position vector (km)
      VX     X-component of velocity vector (km/sec)                           
      VY     Y-component of velocity vector (km/sec)                           
      VZ     Z-component of velocity vector (km/sec)                           

ABERRATIONS AND CORRECTIONS

 Geometric state vectors have NO corrections or aberrations applied.

Computations by ...

    Solar System Dynamics Group, Horizons On-Line Ephemeris System
    4800 Oak Grove Drive, Jet Propulsion Laboratory
    Pasadena, CA  91109   USA

    General site: https://ssd.jpl.nasa.gov/
    Mailing list: https://ssd.jpl.nasa.gov/email_list.html
    System news : https://ssd.jpl.nasa.gov/horizons/news.html
    User Guide  : https://ssd.jpl.nasa.gov/horizons/manual.html
    Connect     : browser        https://ssd.jpl.nasa.gov/horizons/app.html#/x
                  API            https://ssd-api.jpl.nasa.gov/doc/horizons.html
                  command-line   telnet ssd.jpl.nasa.gov 6775
                  e-mail/batch   https://ssd.jpl.nasa.gov/ftp/ssd/hrzn_batch.txt
                  scripts        https://ssd.jpl.nasa.gov/ftp/ssd/SCRIPTS
    Author      : Jon.D.Giorgini@jpl.nasa.gov
*******************************************************************************
